index,X,Y,FID,FEATURE_ID,NAME,ADDRESS,ADDRESS2,ADDRESS3,CITY,STATE,ZIP,COUNTY,PHONE,LATITUDE,LONGITUDE,MATCHSTATU,PLACEMENT,CENSUSCODE,BUSINESSNA,cluster
220,-77.48134099,37.55347802,4221,27198,The UPS Store,3126 W Cary St, , ,Richmond,VA,23221,Richmond City,804-254-2902,37.553478,-77.481341,OK, ,517600409001018, ,3
245,-77.60312498,37.50851101,4246,27234,UPS Alliance Location,1248 Car Mia Way, , ,Richmond,VA,23235,Chesterfield,804-897-2988,37.508511,-77.603125,OK, ,510411009201016,Staples Aso 00854,3
267,-77.57959202,37.50652999,4268,27243,Authorized Shipping Outlet,9992 Robious Rd, , ,Richmond,VA,23235,Chesterfield,804-330-4018,37.50653,-77.579592,OK, ,510411009071001,Packaging Store,3
285,-77.45858002,37.63127298,4286,27250,Authorized Shipping Outlet,7901 Brook Rd, , ,Richmond,VA,23227,Henrico,804-261-1982,37.631273,-77.45858,OK, ,510872009032026,Wal-Mart Pbc Store Number2295,3
380,-77.50150701,37.37241098,4381,27477,Authorized Shipping Outlet,10326 Iron Bridge Rd, , ,Chester,VA,23831,Chesterfield,804-748-3759,37.372411,-77.501507,OK, ,510411008112008,Package Express & Bus Svcs Llc,3
411,-77.65370302,37.40924602,4412,26854,Authorized Shipping Outlet,13618 Hull St Rd, , ,Midlothian,VA,23112,Chesterfield,804-739-0502,37.409246,-77.653703,OK, ,510411010073004,Parcel Plus Store Number080,3
414,-77.64198899,37.502617,4415,26855,The UPS Store,13146 Midlothian Tpke, , ,Midlothian,VA,23113,Chesterfield,804-379-7608,37.502617,-77.641989,OK, ,510411009151003, ,3
417,-77.61324098,37.64950699,4418,26860,The UPS Store,3420 Pump Rd, , ,Richmond,VA,23233,Henrico,804-360-0189,37.649507,-77.613241,OK, ,510872001212000, ,3
441,-77.883536,37.69755301,4442,26946,Authorized Shipping Outlet,2726 Fairgrounds Rd, , ,Goochland,VA,23063,Goochland,804-556-9188,37.697553,-77.883536,OK, ,510754004001036,Ez Ship,3
448,-78.46372399,37.07086299,4449,27015,UPS Customer Center,3900 Horseshoe Bend Rd, , ,Keysville,VA,23947,Charlotte,800-742-5877,37.070863,-78.463724,Zip Centroid,\nPlacement: Zip Centroid,510379901001055,Staffed Location,5
461,-78.83605199,37.354102,4462,29055,Authorized Shipping Outlet,835 Lee Grant Ave, , ,Appomattox,VA,24522,Appomattox,434-352-0231,37.354102,-78.836052,OK, ,510110401003034,Appomattox Shipping Center Llc,5
467,-79.06938499,38.13794199,4468,21341,The UPS Store,644 Greenville Ave, , ,Staunton,VA,24401,Staunton City,540-885-6245,38.137942,-79.069385,OK, ,517900006004001, ,4
478,-77.61255001,37.65044999,4479,26989,UPS Alliance Location,3540 Pump Rd, , ,Richmond,VA,23233,Henrico,804-364-2441,37.65045,-77.61255,OK, ,510872001212000,Staples Aso 01290,3
480,-77.613288,37.50887599,4481,26990,UPS Alliance Location,1250 Huguenot Rd, , ,Midlothian,VA,23113,Chesterfield,804-594-7039,37.508876,-77.613288,OK, ,510411009152033,Office Depot/Copy Center,3
503,-78.93712598,38.063661,4504,21399,The UPS Store,105 Lew Dewitt Blvd, , ,Waynesboro,VA,22980,Waynesboro City,540-932-1000,38.063661,-78.937126,OK, ,518200035004002, ,4
514,-77.495806,38.24567802,4515,25847,Authorized Shipping Outlet,10697 Spotsylvania Ave, , ,Fredericksburg,VA,22408,Spotsylvania,540-710-5707,38.245678,-77.495806,OK, ,511770202005027,Copy Center Plus Inc,7
516,-79.06586299,38.14038699,4517,26781,UPS Alliance Location,850 Statler Blvd, , ,Staunton,VA,24401,Staunton City,540-886-9710,38.140387,-79.065863,OK, ,517900006002000,Staples Aso 00671,4
517,-77.49972499,38.23229999,4518,25848,Authorized Shipping Outlet,5438 Southpoint Way, , ,Fredericksburg,VA,22407,Spotsylvania,540-891-0881,38.2323,-77.499725,OK, ,511770203013000,Mailhouse Plus,7
520,-78.33724901,37.90998702,4521,26807,Authorized Shipping Outlet,265 Turkey Sag Trl, , ,Palmyra,VA,22963,Fluvanna,434-589-9602,37.909987,-78.337249,OK, ,510650201003041,Mailbox Express,4
521,-77.52786302,38.24392602,4522,25933,Authorized Shipping Outlet,10400 Courthouse Rd, , ,Spotsylvania,VA,22553,Spotsylvania,540-891-0881,38.243926,-77.527863,OK, ,511770203023000,Mailhouse Plus,7
523,-78.43602,38.13136999,4524,26394,The UPS Store,3445 Seminole Trl, , ,Charlottesville,VA,22911,Albemarle,434-975-1100,38.13137,-78.43602,OK, ,510030103001001, ,4
524,-77.46100501,37.67092501,4525,25971,The UPS Store,9962 Brook Rd, , ,Glen Allen,VA,23059,Henrico,804-565-9565,37.670925,-77.461005,OK, ,510872009031006, ,3
542,-77.47143101,37.76145899,4543,26044,Authorized Shipping Outlet,225 N Washington Hwy, , ,Ashland,VA,23005,Hanover,804-752-1650,37.761459,-77.471431,OK, ,510853206013022,Postnet,3
545,-77.52496999,37.65856399,4546,26045,The UPS Store,10286 Staples Mill Rd, , ,Glen Allen,VA,23060,Henrico,804-755-4877,37.658564,-77.52497,OK, ,510872004052014, ,3
546,-78.47961801,38.07766001,4547,26425,UPS Alliance Location,600 Shoppers World Ct, , ,Charlottesville,VA,22901,Albemarle,804-975-0501,38.07766,-78.479618,OK, ,510030107001002,Staples Aso 00320,4
547,-77.49688901,37.61424199,4548,26046,The UPS Store,7109 Staples Mill Rd, , ,Richmond,VA,23228,Henrico,804-266-3477,37.614242,-77.496889,OK, ,510872005031060, ,3
549,-78.437235,38.12778401,4550,26426,Authorized Shipping Outlet,1748 Timberwood Blvd, , ,Charlottesville,VA,22911,Albemarle,434-964-1817,38.127784,-78.437235,OK, ,510030103001003,Copy Right,4
550,-77.57727198,37.64599298,4551,26047,The UPS Store,10307 W Broad St, , ,Glen Allen,VA,23060,Henrico,804-968-5900,37.645993,-77.577272,OK, ,510872001191014, ,3
552,-78.47137,38.08756998,4553,26427,Authorized Shipping Outlet,1900 Rio Hill Center, , ,Charlottesville,VA,22901,Albemarle,434-817-6245,38.08757,-78.47137,OK, ,510030108001009,"Signed,sealed & Delivered",4
555,-78.48533099,38.06887998,4556,26428,The UPS Store,977 Seminole Trl, , ,Charlottesville,VA,22901,Albemarle,434-973-6700,38.06888,-78.485331,OK, ,515400008004000, ,4
566,-78.41577799,38.01847601,4567,26432,UPS Customer Center,2440 Hunters Way, , ,Charlottesville,VA,22911,Albemarle,800-742-5877,38.018476,-78.415778,OK, ,510030104004025,Staffed Location,4
567,-77.57877,37.44422102,4568,26856,The UPS Store,9947 Hull St, , ,Richmond,VA,23236,Chesterfield,804-745-8870,37.444221,-77.57877,OK, , , ,3
570,-77.51221799,37.37599798,4571,26857,The UPS Store,6933 Commons Plz, , ,Chesterfield,VA,23832,Chesterfield,804-751-0505,37.375998,-77.512218,OK, ,510411008092003, ,3
573,-77.56145599,37.535019,4574,26858,The UPS Store,2711 Buford Rd, , ,Richmond,VA,23235,Chesterfield,804-560-5560,37.535019,-77.561456,OK, ,510411009021016, ,3
576,-77.59340999,37.60503001,4577,26859,The UPS Store,9702 Gayton Rd, , ,Richmond,VA,23238,Henrico,804-740-2986,37.60503,-77.59341,OK, ,510872001162020, ,3
592,-78.48837799,38.063522,4593,26594,UPS Alliance Location,270 Zan Rd, , ,Charlottesville,VA,22901,Albemarle,804-975-1000,38.063522,-78.488378,OK, ,515400008004003,Office Depot/Copy Center,4
593,-77.58932599,37.68274002,4594,26910,Authorized Shipping Outlet,11357 Nuckols Rd, , ,Glen Allen,VA,23059,Henrico,804-762-7300,37.68274,-77.589326,OK, ,510872001181012,Postnet,3
621,-78.48807699,38.03651,4622,26696,Authorized Shipping Outlet,805 Preston Ave, , ,Charlottesville,VA,22903,Charlottesville City,804-977-8462,38.03651,-78.488077,OK, ,515400002021002,Blue Ridge Pak & Ship,4
624,-78.51223102,38.04305202,4625,26697,Authorized Shipping Outlet,2123 Ivy Rd,Ste B, ,Charlottesville,VA,22903,Charlottesville City,804-984-2121,38.043052,-78.512231,OK, ,515400007004002,Package Depot,4
630,-77.56259702,37.64173201,4631,27081,UPS Alliance Location,9700 W Broad St, , ,Glen Allen,VA,23060,Henrico,804-935-0300,37.641732,-77.562597,OK, ,510872001194008,Office Depot/Copy Ctr,3
633,-77.583669,37.64678802,4634,27082,Authorized Shipping Outlet,10831 W Broad St, , ,Glen Allen,VA,23060,Henrico,804-346-8645,37.646788,-77.583669,OK, ,510872001191013,Mail Room,3
636,-78.48478401,38.032625,4637,26701,UPS Alliance Location,243 Ridge McIntire Rd, , ,Charlottesville,VA,22903,Charlottesville City,434-977-5506,38.032625,-78.484784,OK, ,515400001001010,Staples Aso 01297,4
638,-78.45764299,38.031134,4639,26702,Authorized Shipping Outlet,536 Pantops Ctr, , ,Charlottesville,VA,22911,Albemarle,434-971-5911,38.031134,-78.457643,OK, ,510030105002013,Pack N Mail,4
665,-78.99315998,38.08372101,4666,26747,UPS Customer Center,74 Expo Rd, , ,Fishersville,VA,22939,Augusta,800-742-5877,38.083721,-78.99316,OK, ,510150709004000,Staffed Location,4
679,-77.64824101,37.43035399,4680,26842,The UPS Store,13141 Ritten House Dr, , ,Midlothian,VA,23112,Chesterfield,804-744-7769,37.430354,-77.648241,Zip Centroid,\nPlacement: Zip Centroid,510411009124001, ,3
701,-79.21908699,37.44781499,4702,21489,The UPS Store,4925 Boonsboro Rd, , ,Lynchburg,VA,24503,Lynchburg City,434-384-3933,37.447815,-79.219087,OK, ,516800001003008, ,5
735,-79.17771401,37.37309599,4736,26769,UPS Customer Center,5235 Woodall Rd, , ,Lynchburg,VA,24502,Lynchburg City,800-742-5877,37.373096,-79.177714,OK, ,516800014002025,Staffed Location,5
7219,-82.58458101,36.98240399,7220,13599,Authorized Shipping Outlet,204 Rigg Ave, , ,Wise,VA,24293,Wise,276-328-2800,36.982404,-82.584581,OK, ,511959909001025,Rigg Properties,6
9006,-76.53392498,37.15320199,3007,27114,Authorized Shipping Outlet,435 Oriana Rd,2, ,Newport News,VA,23608,Newport News City,757-872-8128,37.153202,-76.533925,Zip Centroid,\nPlacement: Zip Centroid,517000321241007,Parcel Plus Store Number031,0
9015,-76.72042899,37.25931402,3016,26912,The UPS Store,5251 John Tyler Hwy,18, ,Williamsburg,VA,23185,James City,757-221-0113,37.259314,-76.720429,Zip Centroid,\nPlacement: Zip Centroid,518303701003010, ,0
9033,-76.71975401,37.283098,3034,26922,UPS Alliance Location,1320 Richmond Rd, , ,Williamsburg,VA,23185,James City,757-253-1985,37.283098,-76.719754,OK, ,518303703003002,Staples Aso 00710,0
9035,-76.75832099,37.30822501,3036,26923,UPS Alliance Location,4900 Monticello Ave,2, ,Williamsburg,VA,23188,James City,757-259-1640,37.308225,-76.758321,Zip Centroid,\nPlacement: Zip Centroid,510950802012000,Office Depot/Copy Center,3
9057,-76.46954902,37.11499799,3058,26943,The UPS Store,5007 Victory Blvd, , ,Yorktown,VA,23693,York,757-877-7957,37.114998,-76.469549,OK, ,511990503013011, ,0
9059,-76.47737999,37.07834699,3060,26944,The UPS Store,11712 Jefferson Ave, , ,Newport News,VA,23606,Newport News City,757-873-0384,37.078347,-76.47738,OK, ,517000321152021, ,0
9061,-76.42593198,37.063846,3062,26945,The UPS Store,26 Towne Centre Way, , ,Hampton,VA,23666,Hampton City,757-838-9365,37.063846,-76.425932,OK, ,516500103081022, ,0
9073,-77.390619,37.24625298,3074,26966,UPS Alliance Location,84 Southgate Sq, , ,Colonial Heights,VA,23834,Colonial Heights City,804-524-9010,37.246253,-77.390619,OK, ,515708301003020,Staples Aso 00318,3
9080,-76.75832099,37.30822501,3081,27199,Authorized Shipping Outlet,4680 Monticello Ave,18i, ,Williamsburg,VA,23188,James City,757-565-5102,37.308225,-76.758321,Zip Centroid,\nPlacement: Zip Centroid,510950802012000,Parcel Plus,3
9089,-77.41219601,37.35157999,3090,27307,The UPS Store,12750 Jeff Davis Hwy, , ,Chester,VA,23831,Chesterfield,804-768-8012,37.35158,-77.412196,OK, ,510411005053001, ,3
9096,-76.132638,36.903903,3097,27525,The UPS Store,4701 Shore Dr, , ,Virginia Beach,VA,23455,Virginia Beach City,757-460-2753,36.903903,-76.132638,OK, ,518100418012011, ,0
9098,-76.04019298,36.87663799,3099,27526,The UPS Store,1340 N Greatneck Rd, , ,Virginia Beach,VA,23454,Virginia Beach City,757-496-9584,36.876638,-76.040193,OK, ,518100444021001, ,0
9100,-76.134703,36.87415498,3101,27527,The UPS Store,1083 Independence Blvd, , ,Virginia Beach,VA,23455,Virginia Beach City,757-460-7460,36.874155,-76.134703,OK, ,518100408011000, ,0
9130,-76.38592901,37.04240899,3131,27542,UPS Alliance Location,1082 Mercury Blvd, , ,Hampton,VA,23666,Hampton City,757-838-7610,37.042409,-76.385929,OK, ,516500103052002,Office Depot/Copy Ctr,0
9132,-76.327176,37.05678101,3133,27543,Authorized Shipping Outlet,227 Fox Hill Rd, , ,Hampton,VA,23669,Hampton City,757-851-5815,37.056781,-76.327176,OK, ,516500107032007,The Box Outlet,0
9134,-76.39229799,37.048368,3135,27544,Authorized Shipping Outlet,110 Coliseum Crossing, , ,Hampton,VA,23666,Hampton City,757-838-7447,37.048368,-76.392298,OK, ,516500103053000,Pack and Mail,0
9136,-76.41819599,37.03239998,3137,27545,Authorized Shipping Outlet,3303 W Mercury Blvd, , ,Hampton,VA,23666,Hampton City,757-838-7446,37.0324,-76.418196,OK, ,516500104005008,U-Box,0
9149,-76.60577599,36.96344602,3150,27553,Authorized Shipping Outlet,1915 S Church St, , ,Smithfield,VA,23430,Isle Of Wight,757-357-7959,36.963446,-76.605776,OK, ,510932801021023,Office Express Plus,0
9151,-76.41996401,36.87689298,3152,27554,Authorized Shipping Outlet,6546 Town Point Rd, , ,Suffolk,VA,23435,Suffolk City,757-484-0800,36.876893,-76.419964,OK, ,518000751002060,Goin' Postal,0
9165,-76.168235,36.81452502,3166,27560,Authorized Shipping Outlet,5264 Fairfield Shopping Center, , ,Virginia Beach,VA,23464,Virginia Beach City,757-467-5488,36.814525,-76.168235,OK, ,518100460021009,Jack Rabbit Postal Center,0
9172,-76.21806599,36.80889399,3173,27561,Authorized Shipping Outlet,6525 Auburn Dr, , ,Virginia Beach,VA,23464,Virginia Beach City,757-523-0805,36.808894,-76.218066,OK, ,518100462052004,Jeralu Enterprise Llc,0
9176,-76.16690401,36.79507602,3177,27562,Authorized Shipping Outlet,5040 Ferrell Pkwy, , ,Virginia Beach,VA,23464,Virginia Beach City,757-467-4400,36.795076,-76.166904,OK, ,518100462131005,Aaaa Self Storage,0
9182,-76.16604499,36.79525299,3183,27563,Authorized Shipping Outlet,5020 Ferrell Pkwy, , ,Virginia Beach,VA,23464,Virginia Beach City,757-216-7000,36.795253,-76.166045,OK, ,518100462131005,Postnet,0
9185,-76.173779,36.80022201,3186,27564,Authorized Shipping Outlet,5300 Kempsriver Dr,126, ,Virginia Beach,VA,23464,Virginia Beach City,757-523-8801,36.800222,-76.173779,Zip Centroid,\nPlacement: Zip Centroid,518100462062019,The Express Shop,0
9189,-76.150141,36.78746701,3190,27565,Authorized Shipping Outlet,4221 Pleasant Valley Rd, , ,Virginia Beach,VA,23464,Virginia Beach City,804-467-6569,36.787467,-76.150141,OK, ,518100462132008,Mail Werks Store Number4,0
9228,-76.35904099,36.81077098,3229,16453,The UPS Store,4006 Victory Blvd, , ,Portsmouth,VA,23701,Portsmouth City,757-405-3570,36.810771,-76.359041,OK, ,517402127011000, ,0
9298,-76.272627,36.915945,3299,28239,Authorized Shipping Outlet,7649 Granby St, , ,Norfolk,VA,23505,Norfolk City,757-489-8309,36.915945,-76.272627,OK, ,517100013001000,Copies and More,0
9302,-76.31748,36.92768998,3303,28240,Authorized Shipping Outlet,8206 Hampton Blvd, , ,Norfolk,VA,23505,Norfolk City,757-423-4622,36.92769,-76.31748,OK, ,517100011002010,U.S. Pak-N-,0
9306,-76.28147599,36.85211099,3307,28243,Authorized Shipping Outlet,645 Church St, , ,Norfolk,VA,23510,Norfolk City,757-622-7446,36.852111,-76.281476,OK, ,517100042001033,Universal Pack & Ship,0
9325,-76.199379,36.85522801,3326,28322,UPS Alliance Location,5957 E Virginia Beach, , ,Norfolk,VA,23502,Norfolk City,757-455-5889,36.855228,-76.199379,OK, ,517100069012004,Office Depot/Copy Center,0
9328,-76.16292099,36.86994099,3329,28325,Authorized Shipping Outlet,5393 Weslyan Dr, , ,Virginia Beach,VA,23455,Virginia Beach City,757-552-0039,36.869941,-76.162921,OK, ,518100404021001,Point To Point,0
9333,-76.13238601,36.86301099,3334,28326,Authorized Shipping Outlet,717 Independence Blvd, , ,Virginia Beach,VA,23455,Virginia Beach City,757-473-0678,36.863011,-76.132386,OK, ,518100408012010,Pak N Post,0
9337,-76.209467,36.86358998,3338,28327,Authorized Shipping Outlet,5680 Lowery Rd, , ,Norfolk,VA,23502,Norfolk City,757-461-4344,36.86359,-76.209467,OK, ,517100067001016,Aaaa Self Storage-Lowery,0
9382,-76.24358602,36.74181799,3383,19479,The UPS Store,109 Gainesborough Sq, , ,Chesapeake,VA,23320,Chesapeake City,757-549-6622,36.741818,-76.243586,OK, ,515500209012004, ,0
9385,-76.24442998,36.771602,3386,19480,The UPS Store,732 Eden Way N, , ,Chesapeake,VA,23320,Chesapeake City,757-424-5326,36.771602,-76.24443,OK, ,515500208052007, ,0
9388,-76.19176698,36.77958499,3389,19481,The UPS Store,1920 Centerville Tpke, , ,Virginia Beach,VA,23464,Virginia Beach City,757-479-4634,36.779585,-76.191767,OK, ,518100462188000, ,0
9391,-76.20281499,36.85565198,3392,19482,The UPS Store,5802 E Virginia Beach Blvd, , ,Norfolk,VA,23502,Norfolk City,757-466-8666,36.855652,-76.202815,OK, ,517100069011002, ,0
9406,-76.065349,36.752335,3407,19487,The UPS Store,2476 Nimmo Pkwy, , ,Virginia Beach,VA,23456,Virginia Beach City,757-430-6300,36.752335,-76.065349,OK, ,518100454101002, ,0
9423,-75.994154,36.78306501,3424,19527,The UPS Store,2133 Upton Dr,126, ,Virginia Beach,VA,23454,Virginia Beach City,757-430-7881,36.783065,-75.994154,OK, , , ,0
9425,-76.12380998,36.78958301,3426,19529,The UPS Store,2085 Lynnhaven Pkwy, , ,Virginia Beach,VA,23456,Virginia Beach City,757-471-6471,36.789583,-76.12381,OK, ,518100460081001, ,0
9443,-76.40971599,36.824154,3444,19553,Authorized Shipping Outlet,4107 Portsmouth Blvd, , ,Chesapeake,VA,23321,Chesapeake City,757-488-9058,36.824154,-76.409716,OK, ,515500215023000,Pac N Mail,0
9446,-76.285038,36.717601,3447,19554,Authorized Shipping Outlet,1245 Cedar Rd,Ste G, ,Chesapeake,VA,23322,Chesapeake City,757-549-2139,36.717601,-76.285038,OK, ,515500210061012,Mail Werx,0
9449,-76.24290499,36.74138299,3450,19555,Authorized Shipping Outlet,681 N Battlefield Blvd, , ,Chesapeake,VA,23320,Chesapeake City,757-436-3486,36.741383,-76.242905,OK, ,515500209012014,Mail Werks,0
9453,-76.39386401,36.86259399,3454,27581,Authorized Shipping Outlet,5758 Churchland Blvd, , ,Portsmouth,VA,23703,Portsmouth City,757-484-2647,36.862594,-76.393864,OK, ,517402131013024,The Village Mailbox,0
9454,-76.01368601,36.76734399,3455,19584,Authorized Shipping Outlet,2129 General Booth Blvd, , ,Virginia Beach,VA,23454,Virginia Beach City,757-430-0997,36.767344,-76.013686,OK, ,518100454174000,Pak Mail,0
9457,-76.00906801,36.76238498,3458,19585,Authorized Shipping Outlet,1169 Nimmo Pkwy, , ,Virginia Beach,VA,23456,Virginia Beach City,757-430-7500,36.762385,-76.009068,OK, ,518100454193029,The Box Office,0
9460,-75.99915102,36.786708,3461,19586,Authorized Shipping Outlet,1581 General Booth Blvd, , ,Virginia Beach,VA,23454,Virginia Beach City,757-491-3278,36.786708,-75.999151,OK, ,518100454081000,Mail Express,0
9463,-76.300951,36.87761102,3464,27582,Authorized Shipping Outlet,1090 W 35th St, , ,Norfolk,VA,23508,Norfolk City,757-423-3281,36.877611,-76.300951,OK, ,517100027003003,Aaaa Self Storage -35th St,0
9465,-76.07385801,36.81349601,3466,19587,The UPS Store,800 S Lynnhaven Rd, , ,Virginia Beach,VA,23452,Virginia Beach City,757-306-1877,36.813496,-76.073858,OK, ,518100454071018, ,0
9467,-75.994282,36.85198502,3468,19595,The UPS Store,576 N Birdneck Rd, , ,Virginia Beach,VA,23451,Virginia Beach City,757-282-6233,36.851985,-75.994282,OK, ,518100440012003, ,0
9470,-76.150428,36.82140398,3471,19596,The UPS Store,4876 Princess Anne Rd, , ,Virginia Beach,VA,23462,Virginia Beach City,757-497-2028,36.821404,-76.150428,OK, ,518100460052004, ,0
9475,-75.97355398,36.84533998,3476,19597,The UPS Store,4001 Virginia Beach Blvd,117, ,Virginia Beach,VA,23451,Virginia Beach City,757-963-2741,36.84534,-75.973554,OK, ,518100440023038, ,0
9545,-76.29235201,36.86923898,3546,27591,The UPS Store,520 W 21st St, , ,Norfolk,VA,23517,Norfolk City,757-626-1766,36.869239,-76.292352,OK, ,517100037001006, ,0
9587,-76.53130898,36.95221301,3588,27944,Authorized Shipping Outlet,13478 Carrollton Blvd, , ,Carrollton,VA,23314,Isle Of Wight,757-238-8727,36.952213,-76.531309,OK, ,510932801031012,Goin Postal Store Number123,0
9604,-76.48752698,37.09438698,3605,27952,UPS Alliance Location,11971 Jefferson Ave, , ,Newport News,VA,23606,Newport News City,757-249-0800,37.094387,-76.487527,OK, ,517000321151009,Office Depot/Copy Ctr,0
9669,-76.286941,36.868013,3670,28255,Authorized Shipping Outlet,222 W 21st St, , ,Norfolk,VA,23517,Norfolk City,757-626-0065,36.868013,-76.286941,OK, ,517100036001009,Pak Mail 172,0
9764,-76.08095801,36.79300602,3765,28120,Authorized Shipping Outlet,3208 Holland Rd, , ,Virginia Beach,VA,23453,Virginia Beach City,757-468-9010,36.793006,-76.080958,OK, ,518100454062016,Mail Werks,0
9767,-76.02530502,36.84937201,3768,28148,UPS Alliance Location,551 Hilltop Plaza Shopp, , ,Virginia Beach,VA,23454,Virginia Beach City,757-417-6400,36.849372,-76.025305,OK, ,518100448053000,Office Depot/Copy Ctr,0
9768,-76.07531399,36.91058102,3769,28149,Authorized Shipping Outlet,2973 Shore Dr, , ,Virginia Beach,VA,23451,Virginia Beach City,757-321-6636,36.910581,-76.075314,OK, ,518100430014011,The Box Office,0
9770,-76.01829602,36.85147998,3771,28150,Authorized Shipping Outlet,1624 Laskin Rd, , ,Virginia Beach,VA,23451,Virginia Beach City,800-742-5877,36.85148,-76.018296,OK, ,518100446004008,The Box Office,0
9816,-76.21828301,36.88414999,3817,28221,UPS Customer Center,3313 Croft St, , ,Norfolk,VA,23513,Norfolk City,800-742-5877,36.88415,-76.218283,OK, ,517100059022021,Package Pick Up Only,0
9823,-76.19057001,36.89366501,3824,28229,UPS Customer Center,1390 Airrail Ave, , ,Virginia Beach,VA,23455,Virginia Beach City,800-742-5877,36.893665,-76.19057,OK, ,518100402004005,Staffed Location,0
9854,-76.47618001,37.091846,3855,28377,UPS Customer Center,735 Middleground Blvd, , ,Newport News,VA,23606,Newport News City,800-742-5877,37.091846,-76.47618,OK, ,517000321152009,Staffed Location,0
9860,-76.47300501,37.08653001,3861,28423,Authorized Shipping Outlet,701 Town Center Dr, , ,Newport News,VA,23606,Newport News City,757-327-0445,37.08653,-76.473005,OK, ,517000321152016,"Signed, Sealed & Delivered",0
9879,-77.39187898,37.25014602,3880,28639,Authorized Shipping Outlet,798 Southpark Blvd, , ,Colonial Heights,VA,23834,Colonial Heights City,804-520-5111,37.250146,-77.391879,OK, ,515708301003020,Packaging Store,3
9880,-76.58996198,36.76162001,3881,16272,Authorized Shipping Outlet,2425 Pruden Blvd, , ,Suffolk,VA,23434,Suffolk City,757-923-1105,36.76162,-76.589962,OK, ,518000754001089,"Postal Solutions,hq",0
9882,-76.59169901,36.732344,3883,16273,Authorized Shipping Outlet,2815 L Godwin Blvd, , ,Suffolk,VA,23434,Suffolk City,757-934-2113,36.732344,-76.591699,Zip Centroid,\nPlacement: Zip Centroid,518000653002002,Copico,0
9896,-76.50064701,37.78167398,3897,25914,UPS Customer Center,1916 White Chapel Rd, , ,Lancaster,VA,22503,Lancaster,800-742-5877,37.781674,-76.500647,OK, ,511039901004004,Staffed Location,3
9899,-76.38903001,37.72507102,3900,25915,Authorized Shipping Outlet,573 N Main St, , ,Kilmarnock,VA,22482,Lancaster,804-435-9315,37.725071,-76.38903,OK, ,511039902002012,Jeff's Packaging Solutions,3
9946,-76.41779299,36.822655,3947,16451,The UPS Store,4240 Portsmouth Blvd, , ,Chesapeake,VA,23321,Chesapeake City,757-465-8160,36.822655,-76.417793,OK, ,515500215024036, ,0
9949,-76.364216,37.45021901,3950,25969,Authorized Shipping Outlet,10541 Buckley Hall Rd, , ,Mathews,VA,23109,Mathews,804-725-9315,37.450219,-76.364216,Zip Centroid,\nPlacement: Zip Centroid,511159514001048,Joyce's Pack & Ship,0
9952,-77.31009698,37.61653801,3953,26009,The UPS Store,8005 Creighton Pkwy,C, ,Mechanicsville,VA,23111,Hanover,804-746-3007,37.616538,-77.310097,Zip Centroid,\nPlacement: Zip Centroid,510853213004004, ,3
9958,-76.52510801,37.413621,3959,26029,Authorized Shipping Outlet,6740 Main St, , ,Gloucester,VA,23061,Gloucester,757-693-4155,37.413621,-76.525108,OK, ,510731002003016,Office Supply,0
9964,-77.336397,37.612445,3965,26153,Authorized Shipping Outlet,7003 Mechanicsville Tpke, , ,Mechanicsville,VA,23111,Hanover,804-730-2006,37.612445,-77.336397,OK, ,510853213004011,Mail Box & Packaging Ctr,3
9990,-77.41615501,37.40248102,3991,27450,UPS Customer Center,9601 Coach Rd, , ,Richmond,VA,23237,Chesterfield,800-742-5877,37.402481,-77.416155,OK, ,510411004033014,Staffed Location,3
9993,-75.73586702,37.70970199,3994,27502,Authorized Shipping Outlet,152 Market St, , ,Onancock,VA,23417,Accomack,757-787-4646,37.709702,-75.735867,OK, ,510019906003029,Eastern Shore Printers,0
11048,-82.12686198,36.63205401,6049,22998,The UPS Store,3101 Lee Hwy, , ,Bristol,VA,24202,Washington,276-591-1066,36.632054,-82.126862,OK, ,515200204001030, ,6
11312,-82.12605599,36.63211702,6313,29758,UPS Alliance Location,3106 Lee Hwy, , ,Bristol,VA,24202,Washington,276-466-3711,36.632117,-82.126056,OK, ,515200204001027,Office Depot/Copy Center,6
11391,-82.12568699,36.616762,6392,29765,UPS Customer Center,873 Bonham Rd, , ,Bristol,VA,24201,Bristol City,800-742-5877,36.616762,-82.125687,OK, ,515200204001056,Staffed Location,6
11430,-81.250344,37.240628,6431,21072,The UPS Store,4035 College Ave, , ,Bluefield,VA,24605,Tazewell,276-326-2116,37.240628,-81.250344,OK, , , ,2
11431,-82.17645798,36.60827299,6432,29770,Authorized Shipping Outlet,50 Euclid Ave, , ,Bristol,VA,24201,Bristol City,276-466-2269,36.608273,-82.176458,OK, ,515200202003003,Boxworks,6
11584,-81.76442298,37.07241302,6585,16420,UPS Customer Center,41 Church St, , ,Cedar Bluff,VA,24609,Tazewell,800-742-5877,37.072413,-81.764423,Zip Centroid,\nPlacement: Zip Centroid,511859910004009,Staffed Location,6
11859,-81.97458398,36.70450199,6860,22647,The UPS Store,448 Cummings St, , ,Abingdon,VA,24210,Washington,540-623-9045,36.704502,-81.974584,OK, ,511910105005002, ,6
11955,-81.084794,36.94993598,6956,29501,The UPS Store,175 W Monroe St, , ,Wytheville,VA,24382,Wythe,276-228-8777,36.949936,-81.084794,OK, ,511979902002035, ,2
14072,-80.92991699,36.65892799,5073,12581,The UPS Store,972 E Stuart Dr, , ,Galax,VA,24333,Galax City,276-238-8555,36.658928,-80.929917,OK, ,516409901005019, ,2
14098,-80.03293499,37.24732699,5099,21463,The UPS Store,2018 Electric Rd, , ,Roanoke,VA,24018,Roanoke,540-772-7300,37.247327,-80.032935,OK, ,517700021002011, ,5
14104,-79.97117702,37.234147,5105,21464,The UPS Store,3735 Franklin Rd, , ,Roanoke,VA,24014,Roanoke City,540-344-8881,37.234147,-79.971177,OK, ,517700017001018, ,5
14176,-79.87270601,36.69100298,5177,12650,Authorized Shipping Outlet,20 Walnut St, , ,Martinsville,VA,24112,Martinsville City,276-632-5555,36.691003,-79.872706,OK, ,516900003002010,Martinsville Pack & Ship Inc,2
14182,-79.87904898,36.69701299,5183,12651,Authorized Shipping Outlet,240 Commonwealth Blvd, , ,Martinsville,VA,24112,Martinsville City,276-666-2013,36.697013,-79.879049,OK, ,516900002001003,Wrap Pack & Mail,2
14285,-79.90963002,37.39709999,5286,21393,The UPS Store,44 Kingston Dr, , ,Daleville,VA,24083,Botetourt,540-966-0220,37.3971,-79.90963,OK, ,510230403005039, ,5
14324,-79.43735299,37.78046001,5325,21542,Authorized Shipping Outlet,449 E Nelson, , ,Lexington,VA,24450,Lexington City,540-463-7740,37.78046,-79.437353,OK, ,516789905005001,Pack and Mail,5
14332,-79.24862201,37.37724402,5333,26750,The UPS Store,18013 Forest Rd, , ,Forest,VA,24551,Bedford,434-316-9800,37.377244,-79.248622,OK, ,510190301022052, ,5
14470,-79.97980802,37.31763702,5471,21576,UPS Customer Center,3941 Thirlane Rd, , ,Roanoke,VA,24019,Roanoke,800-742-5877,37.317637,-79.979808,OK, ,517700003001007,Staffed Location,5
14533,-80.07862599,37.28977698,5534,21462,The UPS Store,1329 W Main St, , ,Salem,VA,24153,Salem,540-387-0077,37.289777,-80.078626,OK, ,517750102004000, ,5
14553,-80.41800802,37.233096,5554,21606,Authorized Shipping Outlet,610 N Main St, , ,Blacksburg,VA,24060,Montgomery,540-951-4351,37.233096,-80.418008,OK, ,511210203006010,Easy Way Packaging Center,2
14562,-80.40212001,37.21861801,5563,21607,Authorized Shipping Outlet,1315 S Main St, , ,Blacksburg,VA,24060,Montgomery,540-953-0731,37.218618,-80.40212,OK, ,511210206002006,Packaging Store,2
14572,-79.28629898,37.304944,5573,26751,The UPS Store,21430 Timberlake Rd, , ,Lynchburg,VA,24502,Lynchburg City,434-237-2300,37.304944,-79.286299,OK, ,510310204004027, ,5
14584,-79.421495,36.59039301,5585,13231,UPS Customer Center,370 Mt Cross Rd, , ,Danville,VA,24540,Danville City,800-742-5877,36.590393,-79.421495,OK, ,515900008001009,Staffed Location,5
14601,-79.539076,37.246629,5602,29460,Authorized Shipping Outlet,8347 Moneta Rd, , ,Bedford,VA,24523,Bedford,540-297-3900,37.246629,-79.539076,OK, ,510190304023008,Pps,5
14608,-79.52350502,37.33462301,5609,29463,Authorized Shipping Outlet,113 N Bridge St, , ,Bedford,VA,24523,Bedford,540-586-1243,37.334623,-79.523505,OK, ,515150501004016,Rapid Prtng & Office Suppl,5
14615,-79.40675902,36.60952198,5616,13250,Authorized Shipping Outlet,636b Piney Forest Rd, , ,Danville,VA,24540,Danville City,804-793-1924,36.609522,-79.406759,OK, ,515900002002000,Mail & Parcel Plus,5
14632,-79.289609,37.108773,5633,29470,Authorized Shipping Outlet,511 Main St, , ,Altavista,VA,24517,Campbell,434-369-6777,37.108773,-79.289609,OK, ,510310207001034,The Portriat Place,5
14877,-80.007787,37.23257798,5878,29230,Authorized Shipping Outlet,3916 Brambleton Ave, , ,Roanoke,VA,24018,Roanoke,540-772-0999,37.232578,-80.007787,OK, ,511610308011014,Packaging Store,5
14915,-79.98217698,37.22502399,5916,29240,UPS Alliance Location,4082 Electric Rd, , ,Roanoke,VA,24018,Roanoke,540-776-0866,37.225024,-79.982177,OK, ,511610308012019,Staples Aso 00321,5
14922,-79.962971,37.30914099,5923,29242,UPS Alliance Location,4727 Valley View Blvd NW, , ,Roanoke,VA,24012,Roanoke City,540-265-4860,37.309141,-79.962971,OK, ,517700003001029,Staples Aso 00639,5
14925,-80.69015399,37.08522799,5926,21193,UPS Customer Center,5005 Woodlyn St, , ,Dublin,VA,24084,Pulaski,800-742-5877,37.085228,-80.690154,OK, ,511552106003029,Staffed Location,2
14963,-79.88820299,36.99600901,5964,29360,Authorized Shipping Outlet,45 Market Pl Dr, , ,Rocky Mount,VA,24151,Franklin,540-489-8600,36.996009,-79.888203,OK, ,510670208004007,Mail & Parcel Plus,5
14967,-79.80360802,37.17802002,5968,29361,Authorized Shipping Outlet,40 Village Springs Dr, , ,Hardy,VA,24101,Franklin,540-721-3940,37.17802,-79.803608,Zip Centroid,\nPlacement: Zip Centroid,510670203001044,Brenda's Pack & Ship,5
14977,-80.41414898,37.22956198,5978,21366,The UPS Store,125 N Main St, , ,Blacksburg,VA,24060,Montgomery,540-953-9000,37.229562,-80.414149,OK, ,511210207002005, ,2
14982,-79.726747,37.12063101,5983,29450,The UPS Store,13010 Booker T Washington Hwy, , ,Hardy,VA,24101,Franklin,540-721-1001,37.120631,-79.726747,OK, ,510670203002082, ,5
14984,-79.22271802,37.354375,5985,30693,UPS Alliance Location,3700-850 Chandler Mtn Rd, , ,Lynchburg,VA,24502,Lynchburg City,804-846-1919,37.354375,-79.222718,Zip Centroid,\nPlacement: Zip Centroid,516800016002006,Staples Aso 00319,5
14997,-80.420875,37.15918899,5998,21517,The UPS Store,70 Spradlin Farm Dr, , ,Christiansburg,VA,24073,Montgomery,540-382-0030,37.159189,-80.420875,OK, , , ,2
35000,-77.70652202,39.13659102,38001,24995,Authorized Shipping Outlet,609 E Main St, , ,Purcellville,VA,20132,Loudoun,540-338-3266,39.136591,-77.706522,OK, ,511076107001025,Mail It All Inc,1
35035,-77.35797,39.04002499,38036,28489,Authorized Shipping Outlet,20789 Great Falls Plz, , ,Sterling,VA,20165,Loudoun,703-421-7971,39.040025,-77.35797,OK, ,511076112031016,Central Office,1
35065,-77.55311499,39.10930799,38066,24996,The UPS Store,525 E Market St, , ,Leesburg,VA,20176,Loudoun,703-771-4699,39.109308,-77.553115,OK, ,511076105014004, ,1
35087,-77.55237399,39.10899198,38088,25004,UPS Alliance Location,550 E Market St, , ,Leesburg,VA,20176,Loudoun,703-737-3322,39.108992,-77.552374,OK, ,511076105014004,Office Depot/Copy Center,1
35090,-77.53486499,39.11360601,38091,25005,UPS Alliance Location,1019 Edwards Ferry Rd, , ,Leesburg,VA,20176,Loudoun,703-669-8199,39.113606,-77.534865,OK, ,511076105022012,Staples Aso 01094,1
35095,-77.54067401,39.113679,38096,25006,Authorized Shipping Outlet,932 Edwards Ferry Rd NE, , ,Leesburg,VA,20176,Loudoun,703-443-1387,39.113679,-77.540674,OK, ,511076105011024,The Mail Stop,1
35110,-77.43098302,38.88565501,38111,25014,UPS Alliance Location,U.S. 50 and Rt 28, , ,Chantilly,VA,20151,Fairfax,703-378-1750,38.885655,-77.430983,Zip Centroid,\nPlacement: Zip Centroid,510594916001003,Office Depot/Copy Center,1
35112,-77.41846198,38.88887301,38113,25015,UPS Alliance Location,13653 Lee Jackson Memorial Hwy, , ,Chantilly,VA,20151,Fairfax,703-263-9731,38.888873,-77.418462,OK, ,510594916002004,Staples Aso 00792,1
35115,-77.08821498,38.84183301,38116,25311,The UPS Store,2776 S Arlington Mill Dr, , ,Arlington,VA,22206,Arlington,703-820-3300,38.841833,-77.088215,OK, ,510131029001006, ,1
35118,-77.0862,38.89106602,38119,25320,The UPS Store,2200 Wilson Blvd, , ,Arlington,VA,22201,Arlington,703-358-9500,38.891066,-77.0862,OK, ,510131018001005, ,1
35134,-77.07085301,38.89556401,38135,45611,Authorized Shipping Outlet,1730 N Lynn St, , ,Arlington,VA,22209,Arlington,703-908-9735,38.895564,-77.070853,OK, ,510131016002016,Po Boxes Etc,1
35138,-77.41202602,38.94972101,38139,24862,The UPS Store,2465 Centreville Rd, , ,Herndon,VA,20171,Fairfax,703-793-9504,38.949721,-77.412026,OK, ,510594811001006, ,1
35140,-77.44512698,38.89779499,38141,24863,The UPS Store,14408 Chantilly Crossing Ln, , ,Chantilly,VA,20151,Fairfax,703-263-2522,38.897795,-77.445127,OK, ,510594901001032, ,1
35145,-77.52113202,38.924441,38146,24864,The UPS Store,25050 Riding Plz, , ,South Riding,VA,20152,Loudoun,703-957-4023,38.924441,-77.521132,OK, ,511076118001047, ,1
35149,-77.39636501,38.87758402,38150,24865,The UPS Store,4094 Majestic Ln, , ,Fairfax,VA,22033,Fairfax,703-631-4280,38.877584,-77.396365,OK, ,510594918001000, ,1
35188,-77.33359202,38.64505401,38189,24993,Authorized Shipping Outlet,4491 Cheshire Station Plz, , ,Dale City,VA,22193,Prince William,703-730-4831,38.645054,-77.333592,OK, ,511539004041002,Postnet,1
35189,-77.46046999,38.89550299,38190,24880,UPS Customer Center,4455 Stonecroft Blvd, , ,Chantilly,VA,20151,Fairfax,800-742-5877,38.895503,-77.46047,OK, ,510594901001015,Staffed Location,1
35190,-77.08557902,38.80805998,38191,25312,The UPS Store,3213 Duke St, , ,Alexandria,VA,22314,Alexandria City,703-823-4500,38.80806,-77.085579,OK, ,515102008021001, ,1
35193,-77.058694,38.82621399,38194,25321,The UPS Store,2308 Mount Vernon Ave, , ,Alexandria,VA,22301,Alexandria City,703-739-9100,38.826214,-77.058694,OK, ,515102014001009, ,1
35196,-77.609249,38.79594,38197,24925,The UPS Store,7371 Atlas Walkway, , ,Gainesville,VA,20155,Prince William,571-261-4980,38.79594,-77.609249,OK, , , ,1
35199,-77.49046201,38.76961,38200,24942,The UPS Store,8665 Sudley Rd, , ,Manassas,VA,20110,Manassas City,703-330-2951,38.76961,-77.490462,OK, ,516839101001000, ,1
35211,-77.53727299,38.98655102,38212,24890,The UPS Store,42395 Ryan Rd, , ,Brambleton,VA,20148,Loudoun,703-957-4545,38.986551,-77.537273,OK, ,511076110081044, ,1
35213,-77.51387002,38.91566999,38214,24891,Authorized Shipping Outlet,43053 Pemberton Sq, , ,South Riding,VA,20152,Loudoun,703-542-5335,38.91567,-77.51387,OK, ,511076118001047,Postland,1
35220,-77.57176798,38.75166401,38221,24951,Authorized Shipping Outlet,12841 Braemar Village Plz, , ,Bristow,VA,20136,Prince William,703-396-8811,38.751664,-77.571768,OK, , ,Postnet,1
35224,-77.45080702,38.75409801,38225,24952,The UPS Store,9532 Liberia Ave, , ,Manassas,VA,20110,Manassas City,703-367-8955,38.754098,-77.450807,OK, ,516839103002012, ,1
35226,-77.508572,39.02654899,38227,24897,Authorized Shipping Outlet,43150 Broadlands Center Plz, , ,Ashburn,VA,20148,Loudoun,571-223-1995,39.026549,-77.508572,OK, ,511076110071054,Postal Masters,1
35242,-77.55925198,38.94524298,38243,24936,Authorized Shipping Outlet,42020 Village Central Plz Ctr, , ,Aldie,VA,20105,Loudoun,703-327-5570,38.945243,-77.559252,Zip Centroid,\nPlacement: Zip Centroid,511076118001057,Postnet,1
35244,-77.50207898,39.03618901,38245,24937,Authorized Shipping Outlet,43330 Jct Plz, , ,Ashburn,VA,20147,Loudoun,703-724-3910,39.036189,-77.502079,OK, ,511076110051016,Parcel Plus Store Number150,1
35246,-77.48018702,39.04431802,38247,24938,Authorized Shipping Outlet,44031 Pipeline Plz, , ,Ashburn,VA,20147,Loudoun,703-729-9191,39.044318,-77.480187,Zip Centroid,\nPlacement: Zip Centroid,511076110031054,The Package Factory,1
35249,-77.47536299,39.04504899,38250,24939,The UPS Store,44050 Ashburn Shopping Plz, , ,Ashburn,VA,20147,Loudoun,703-726-8740,39.045049,-77.475363,OK, ,511076110031052, ,1
35257,-77.44017901,38.836942,38258,24953,The UPS Store,14001 Saint Germain Dr, , ,Centreville,VA,20121,Fairfax,703-968-8866,38.836942,-77.440179,OK, ,510594913001012, ,1
35260,-77.51555498,38.78729302,38261,24971,UPS Alliance Location,10630 Sudley Manor Dr, , ,Manassas,VA,20109,Prince William,703-369-5200,38.787293,-77.515555,OK, ,511539014031000,Office Depot/Copy Ctr,1
35262,-77.514318,38.78893599,38263,24972,UPS Alliance Location,7743 Sudley Rd, , ,Manassas,VA,20109,Prince William,703-393-7050,38.788936,-77.514318,OK, ,511539016022017,Staples Aso 00098,1
35267,-77.36719099,38.661742,38268,24975,Authorized Shipping Outlet,5429 Mapledale Plz, , ,Dale City,VA,22193,Prince William,703-590-6682,38.661742,-77.367191,OK, ,511539012132001,Parcel Store,1
35269,-77.45096002,38.74250099,38270,24976,UPS Alliance Location,9890 Liberia Ave, , ,Manassas,VA,20110,Manassas City,703-257-2373,38.742501,-77.45096,OK, ,516839103003001,Staples Aso 01647,1
35272,-77.33387001,38.674539,38273,24977,The UPS Store,4196 Merchant Plz, , ,Lake Ridge,VA,22192,Prince William,703-878-7890,38.674539,-77.33387,OK, ,511539012201039, ,1
35274,-77.318601,38.79838199,38275,24978,The UPS Store,5765 Burke Centre Pkwy, , ,Burke,VA,22015,Fairfax,703-425-0500,38.798382,-77.318601,OK, ,510594320001001, ,1
35283,-77.342997,38.60783399,38284,24986,The UPS Store,4222 Fortuna Center Plz, , ,Dumfries,VA,22025,Prince William,703-583-9404,38.607834,-77.342997,Zip Centroid,\nPlacement: Zip Centroid,511539010062001, ,7
35286,-77.29718801,38.63562999,38287,24992,UPS Alliance Location,14497 Potomac Mills Rd, , ,Woodbridge,VA,22192,Prince William,703-491-0947,38.63563,-77.297188,OK, ,511539004031022,Staples Aso 00473,1
35289,-77.325534,38.80068601,38290,25021,Authorized Shipping Outlet,5622 Ox Rd, , ,Fairfax Station,VA,22039,,703-425-0950,38.800686,-77.325534,OK, ,510594920003000,Parcel Plus 66,1
35290,-77.18308301,38.78055102,38291,25141,The UPS Store,6412 Brandon Ave, , ,Springfield,VA,22150,Fairfax,703-569-8802,38.780551,-77.183083,OK, ,510594306004022, ,1
35293,-77.21569099,38.80531699,38294,25147,UPS Customer Center,5409 Port Royal Rd, , ,Springfield,VA,22151,Fairfax,800-742-5877,38.805317,-77.215691,OK, ,510594304003000,Staffed Location,1
35300,-77.37122898,38.848012,38301,24973,UPS Alliance Location,12275 Price Club Plz, , ,Fairfax,VA,22030,Fairfax City,703-830-7773,38.848012,-77.371229,OK, ,510594917005023,Office Depot/Copy Center,1
35301,-77.41204302,38.83609499,38302,24974,Authorized Shipping Outlet,5746 Union Mill Rd, , ,Clifton,VA,20124,Fairfax,703-818-0227,38.836095,-77.412043,OK, ,510594905001005,Parcel Plus Store Number044,1
35302,-77.30239402,38.845431,38303,25022,The UPS Store,10332 Main St, , ,Fairfax,VA,22030,Fairfax City,703-385-7581,38.845431,-77.302394,OK, ,516003003001019, ,1
35305,-77.52379902,39.097687,38306,25025,The UPS Store,673 Potomac Station Dr, , ,Leesburg,VA,20176,Loudoun,703-669-0500,39.097687,-77.523799,OK, ,511076105022019, ,1
35320,-77.398299,39.03341802,38321,25061,UPS Alliance Location,21060 Southbank St, , ,Sterling,VA,20165,Loudoun,703-406-3270,39.033418,-77.398299,OK, ,511076112011041,Staples Aso 00819,1
35324,-77.39983902,39.02754299,38325,25062,UPS Alliance Location,46301 Potomac Run Plz, , ,Sterling,VA,20164,Loudoun,703-421-4722,39.027543,-77.399839,OK, ,511076115001033,Office Depot/Copy Ctr,1
35326,-77.41285298,39.03993501,38327,25063,Authorized Shipping Outlet,37 Pidgeon Hill Dr, , ,Sterling,VA,20165,Loudoun,703-444-1394,39.039935,-77.412853,OK, ,511076111024018,Mail Center,1
35329,-77.39796401,39.03428901,38330,25064,Authorized Shipping Outlet,21010 Southbank St, , ,Sterling,VA,20165,Loudoun,703-406-7505,39.034289,-77.397964,OK, ,511076112011040,Parcel Plus Store Number089,1
35332,-77.41019199,38.98226801,38333,25065,The UPS Store,21800 Town Center Plz, , ,Sterling,VA,20166,Loudoun,703-433-1693,38.982268,-77.410192,OK, ,511076117002009, ,1
35337,-77.47141,39.05956999,38338,25067,Authorized Shipping Outlet,20020 Ashbrook Commons Plz, , ,Ashburn,VA,20147,Loudoun,703-729-7378,39.05957,-77.47141,OK, ,511076110031009,Postnet,1
35364,-77.413524,38.94432298,38365,25077,UPS Alliance Location,2545 Centerville Rd, , ,Herndon,VA,20171,Fairfax,703-713-0867,38.944323,-77.413524,OK, ,510594811002010,Staples Aso 00100,1
35369,-77.45137202,38.85251599,38370,25078,Authorized Shipping Outlet,5667 Stone Rd, , ,Centreville,VA,20120,Fairfax,703-803-7515,38.852516,-77.451372,OK, ,510594912001001,Parcel Plus Store Number034,1
35376,-77.522111,38.29273899,38377,25845,Authorized Shipping Outlet,3601 Plank Rd, , ,Fredericksburg,VA,22407,Spotsylvania,540-786-8991,38.292739,-77.522111,OK, ,511770201022027,Mailhouse Plus,7
35378,-77.532068,38.28913499,38379,25846,Authorized Shipping Outlet,4121 Plank Rd, , ,Fredericksburg,VA,22407,Spotsylvania,540-786-2600,38.289135,-77.532068,OK, ,511770201021000,Mail&more,7
35408,-77.37602298,39.01574799,38409,25091,Authorized Shipping Outlet,46950 Community Plaza, , ,Sterling,VA,20164,Loudoun,703-444-2800,39.015748,-77.376023,OK, ,511076113001003,Pak Mail,1
35413,-77.40007599,39.00463102,38414,25092,Authorized Shipping Outlet,325 S Sterling Blvd, , ,Sterling,VA,20164,Loudoun,703-404-2397,39.004631,-77.400076,OK, ,511076115003001,ASP Inc,1
35417,-77.48643802,38.29581102,38418,25864,UPS Alliance Location,2003 Plank Rd, , ,Fredericksburg,VA,22401,Fredericksburg City,540-374-1424,38.295811,-77.486438,OK, ,516300005001011,Staples Aso 00285,7
35418,-77.34976999,38.95345301,38419,25093,The UPS Store,11654 Plaza America Dr, , ,Reston,VA,20190,Fairfax,703-437-9300,38.953453,-77.34977,OK, ,510594822002014, ,1
35419,-77.48071298,38.303915,38420,25865,Authorized Shipping Outlet,1231 Jefferson Davis Hwy, , ,Fredericksburg,VA,22401,Fredericksburg City,540-372-6883,38.303915,-77.480713,OK, ,516300003001004,Mailhouse Plus,7
35422,-77.48643802,38.29581102,38423,25866,Authorized Shipping Outlet,2005 Plank Rd, , ,Fredericksburg,VA,22401,Fredericksburg City,540-372-7290,38.295811,-77.486438,OK, ,516300005001011,Packaging Store,7
35423,-77.32886398,38.939482,38424,25096,The UPS Store,11160 S Lakes Dr, , ,Reston,VA,20191,Fairfax,703-476-9200,38.939482,-77.328864,OK, ,510594823003000, ,1
35546,-77.350276,38.97592998,38547,25124,Authorized Shipping Outlet,1474 Reston Pkwy, , ,Reston,VA,20194,Fairfax,703-904-7527,38.97593,-77.350276,OK, ,510594805008000,Parcel Plus Store Number073,1
35578,-77.30098399,38.88250999,38579,25132,The UPS Store,2961 Hunter Mill Rd, , ,Oakton,VA,22124,Fairfax,703-281-1816,38.88251,-77.300984,OK, ,510594611002002, ,1
35581,-77.27011,38.89754402,38582,25133,The UPS Store,344 Maple Ave W, , ,Vienna,VA,22180,Fairfax,703-255-3600,38.897544,-77.27011,OK, ,510594607001009, ,1
35605,-77.35015802,38.93599801,38606,25139,Authorized Shipping Outlet,2254 F Hunters Woods Plz, , ,Reston,VA,20191,Fairfax,571-555-5555,38.935998,-77.350158,Zip Centroid,\nPlacement: Zip Centroid,510594823001000,Postnet,1
35609,-77.209708,38.86604202,38610,25140,The UPS Store,8116 Arlington Blvd, , ,Falls Church,VA,22042,Fairfax,703-846-9656,38.866042,-77.209708,OK, ,510594501002000, ,1
35613,-77.26215301,38.86691102,38614,25142,The UPS Store,3057 Nutley Rd, , ,Fairfax,VA,22031,Fairfax,703-280-1500,38.866911,-77.262153,OK, ,510594617002010, ,1
35617,-77.15135798,38.86729101,38618,25143,The UPS Store,6312 Seven Corners Ctr, , ,Falls Church,VA,22044,Fairfax,703-533-9474,38.867291,-77.151358,OK, ,510594515001001, ,1
35621,-77.18588698,38.891607,38622,25144,The UPS Store,1069 W Broad St, , ,Falls Church,VA,22046,Falls Church City,703-536-1000,38.891607,-77.185887,OK, ,516105002001000, ,1
35711,-77.27544502,38.63188399,38712,25186,Authorized Shipping Outlet,1966 Daniel Stuart Sq, , ,Woodbridge,VA,22191,Prince William,703-490-8833,38.631884,-77.275445,OK, ,511539005004000,Pak Mail,1
35724,-77.35437002,38.96457299,38725,25452,UPS Alliance Location,11816 Spectrum Ctr, , ,Reston,VA,20190,Fairfax,703-481-8301,38.964573,-77.35437,OK, ,510594822001000,Office Depot/Copy Center,1
35725,-77.287642,38.65215299,38726,25191,UPS Alliance Location,14053 Crossing Pl, , ,Woodbridge,VA,22192,Prince William,703-491-0999,38.652153,-77.287642,OK, ,511539004031000,Office Depot/Copy Center,1
35728,-77.42078101,38.47624599,38729,25192,UPS Alliance Location,245 Worth Ave, , ,Stafford,VA,22556,Stafford,540-657-6648,38.476246,-77.420781,OK, ,511790102071016,Staples Aso 01264,7
35731,-77.24736099,38.66129799,38732,25193,Authorized Shipping Outlet,13412 Jefferson Davis Hwy, , ,Woodbridge,VA,22191,Prince William,703-499-9886,38.661298,-77.247361,OK, ,511539002001003,Hi Mart Money Store,1
35734,-77.42104399,38.47491801,38735,25194,Authorized Shipping Outlet,325 Garrisonville Rd, , ,Stafford,VA,22554,Stafford,540-659-9757,38.474918,-77.421044,OK, ,511790102093000,Pak Mail,7
35737,-77.26350899,38.71338901,38738,25290,The UPS Store,8971 Ox Rd, , ,Lorton,VA,22079,Fairfax,703-493-9801,38.713389,-77.263509,OK, ,510594922006009, ,1
35740,-77.212281,38.705797,38741,25291,The UPS Store,9435 Lorton Market Sq, , ,Lorton,VA,22079,Fairfax,703-372-2950,38.705797,-77.212281,Zip Centroid,\nPlacement: Zip Centroid,510594221001000, ,1
35757,-77.26301998,38.775216,38758,25297,UPS Alliance Location,9230 Old Keene Mill Rd, , ,Burke,VA,22015,Fairfax,703-440-0359,38.775216,-77.26302,OK, ,510594310002007,Staples Aso 00651,1
35760,-77.26591301,38.753248,38761,25298,Authorized Shipping Outlet,7481 Huntsman Blvd, , ,Springfield,VA,22153,Fairfax,703-866-9466,38.753248,-77.265913,OK, ,510594325003002,Parcel Plus Store Number024,1
35763,-77.31283402,38.68548302,38764,25299,Authorized Shipping Outlet,12427 Hedges Run Dr, , ,Lake Ridge,VA,22192,Prince William,703-491-7306,38.685483,-77.312834,OK, ,511539012232003,Parcel Plus,1
35768,-77.31876198,38.68382198,38769,25300,Authorized Shipping Outlet,12471 Dillingham Sq, , ,Woodbridge,VA,22192,Prince William,703-878-0550,38.683822,-77.318762,OK, ,511539012211006,Fax & Mail,1
35771,-77.184099,38.81260301,38772,25301,The UPS Store,6920 Bradlick Shopping Center, , ,Annandale,VA,22003,Fairfax,703-256-5995,38.812603,-77.184099,OK, ,510594521002006, ,1
35793,-77.50758298,38.30260402,38794,25885,UPS Alliance Location,1551 Carl D Silver Park, , ,Fredericksburg,VA,22401,Fredericksburg City,540-786-7708,38.302604,-77.507583,OK, ,516300005002010,Office Depot/Copy Ctr,7
35796,-77.51158102,38.29914299,38797,25893,Authorized Shipping Outlet,1285 Carl D Silver Pkwy, , ,Fredericksburg,VA,22401,Fredericksburg City,540-786-0630,38.299143,-77.511581,OK, ,516300005002010,Parcel Plus Store Number172,7
35817,-77.120877,38.722746,38818,25424,The UPS Store,8647 Richmond Hwy, , ,Alexandria,VA,22309,Fairfax,703-619-0500,38.722746,-77.120877,OK, ,510594218002014, ,1
35820,-77.13564699,38.77240201,38821,25425,The UPS Store,5810 Kingstowne Center Dr, , ,Alexandria,VA,22315,Fairfax,703-924-4201,38.772402,-77.135647,OK, , , ,1
35844,-77.17086002,38.771152,38845,25434,UPS Alliance Location,6731 Frontier Dr, , ,Springfield,VA,22150,Fairfax,703-719-9550,38.771152,-77.17086,OK, ,510594210001003,Staples Aso 00027,1
35847,-77.120814,38.81391501,38848,25438,UPS Alliance Location,7708 Richmond Hwy, , ,Alexandria,VA,22304,Alexandria City,703-660-8901,38.813915,-77.120814,Zip Centroid,\nPlacement: Zip Centroid,515102003033004,Staples Aso 00024,1
35849,-77.087228,38.75939899,38850,25439,UPS Alliance Location,6700 B Richmond Hwy, , ,Alexandria,VA,22306,Fairfax,703-660-8671,38.759399,-77.087228,Zip Centroid,\nPlacement: Zip Centroid,510594215001001,Office Depot/Copy Center,1
35852,-77.109744,38.72901802,38853,25440,Authorized Shipping Outlet,8796 Sacarmento Dr,1, ,Alexandria,VA,22309,Fairfax,703-360-1419,38.729018,-77.109744,Zip Centroid,\nPlacement: Zip Centroid,510594217003015,Goin' Postal Alexandria,1
35855,-77.20826902,38.70772902,38856,25441,Authorized Shipping Outlet,7742 Gunston Plz, , ,Lorton,VA,22079,Fairfax,703-339-5891,38.707729,-77.208269,OK, ,510594221001005,Parcel Plus,1
35858,-77.15401002,38.76480898,38859,25442,Authorized Shipping Outlet,7011 Manchester Blvd,A, ,Alexandria,VA,22310,Fairfax,703-922-7174,38.764809,-77.15401,OK, ,510594223002014,Pak Mail,1
35861,-77.054698,38.80583898,38862,25444,The UPS Store,107 S W St, , ,Alexandria,VA,22314,Alexandria City,703-683-8441,38.805839,-77.054698,OK, ,515102019002017, ,1
35871,-77.35888002,38.610456,38872,25495,Authorized Shipping Outlet,5171 Waterway Dr, , ,Montclair,VA,22025,Prince William,703-583-7304,38.610456,-77.35888,OK, ,511539010062010,Pak Mail,7
35884,-77.34140899,38.60373502,38885,25500,Authorized Shipping Outlet,4384 Kevin Walker Dr, , ,Montclair,VA,22025,Prince William,703-670-0162,38.603735,-77.341409,OK, ,511539010062020,"Party, Packages & Post",7
35887,-77.416532,38.46949901,38888,25502,Authorized Shipping Outlet,44 Mine Rd, , ,Stafford,VA,22554,Stafford,540-720-2223,38.469499,-77.416532,OK, ,511790102093000,Mail Boxes Etc,7
35899,-77.12868502,38.80054798,38900,25510,UPS Customer Center,5601 Eisenhower Ave, , ,Alexandria,VA,22304,Alexandria City,800-742-5877,38.800548,-77.128685,OK, ,515102004014001,Staffed Location,1
35954,-77.18667001,38.89235502,38955,25377,UPS Alliance Location,1104 W Broad St, , ,Falls Church,VA,22046,Falls Church City,703-534-0101,38.892355,-77.18667,OK, ,516105001002008,Staples Aso 00092,1
35956,-77.13950699,38.897472,38957,25701,Authorized Shipping Outlet,2503 N Harrison St, , ,Arlington,VA,22205,Arlington,730-752-1888,38.897472,-77.139507,OK, ,510131002005012,Parcel Plus Store Number201,1
35957,-77.1783,38.93637001,38958,25378,The UPS Store,1350 Beverly Rd, , ,McLean,VA,22101,Fairfax,703-448-8044,38.93637,-77.1783,OK, ,510594705004013, ,1
35967,-77.059441,38.775151,38968,25792,Authorized Shipping Outlet,1602 Belle View Blvd, , ,Alexandria,VA,22307,Fairfax,703-660-0080,38.775151,-77.059441,OK, ,510594152002003,Parcel Plus,1
35970,-77.42334098,38.32247602,38971,25825,The UPS Store,43 Town and Country Dr,Ste 119, ,Fredericksburg,VA,22405,Stafford,540-899-2260,38.322476,-77.423341,Zip Centroid,\nPlacement: Zip Centroid,511790104053001, ,7
35973,-77.50032699,38.253797,38974,25826,The UPS Store,10908 Courthouse Rd, , ,Fredericksburg,VA,22408,Spotsylvania,540-891-7722,38.253797,-77.500327,OK, ,511770203012011, ,7
35976,-77.50661698,38.35211202,38977,25827,The UPS Store,754 Warrenton Rd, , ,Fredericksburg,VA,22406,Stafford,540-361-4955,38.352112,-77.506617,OK, ,511790103022026, ,7
35994,-77.46493999,38.27653501,38995,25833,UPS Customer Center,11500 Shannon Dr, , ,Fredericksburg,VA,22408,Spotsylvania,800-742-5877,38.276535,-77.46494,OK, ,511770202003004,Staffed Location,7
35995,-77.09415898,38.88838202,38996,25729,UPS Alliance Location,1515 Courthouse Rd, , ,Arlington,VA,22201,Arlington,703-387-0990,38.888382,-77.094159,Zip Centroid,\nPlacement: Zip Centroid,510131015003003,Office Depot Copy Center,1
38296,-78.182622,38.91029898,37297,24912,UPS Customer Center,912 John Marshall Hwy, , ,Front Royal,VA,22630,Warren,800-742-5877,38.910299,-78.182622,OK, ,511870206004021,Staffed Location,1
38305,-77.79859601,38.72870501,37306,24918,UPS Alliance Location,251 W Lee Hwy, , ,Warrenton,VA,20186,Fauquier,540-347-5989,38.728705,-77.798596,OK, ,510619903012026,Staples Aso 01585,1
38307,-77.786145,38.72756,37308,24919,Authorized Shipping Outlet,41w Lee Hwy, , ,Warrenton,VA,20186,Fauquier,540-347-5259,38.72756,-77.786145,OK, ,510619903012019,U S Parcel Mailing,1
38308,-78.00115798,38.46203699,37309,24920,Authorized Shipping Outlet,205 Southgate Shopping Center, , ,Culpeper,VA,22701,Culpeper,540-825-6761,38.462037,-78.001158,OK, ,510479905004006,Copy Right,7
38309,-77.76629,38.57834299,37310,24921,Authorized Shipping Outlet,11083 Marsh Rd,Ste D, ,Bealeton,VA,22712,Fauquier,540-439-7204,38.578343,-77.76629,OK, ,510619907022028,U.S. Parcel Mailing,7
38312,-77.98294498,39.151892,37313,25029,Authorized Shipping Outlet,107 W Main St, , ,Berryville,VA,22611,Clarke,540-955-9098,39.151892,-77.982945,OK, ,510430101003012,Worksmart Shipping Solutions,1
38313,-78.175439,39.16140599,37314,25030,The UPS Store,4 Weems Ln, , ,Winchester,VA,22601,Winchester City,540-662-3339,39.161406,-78.175439,OK, ,518400003021003, ,1
38333,-78.16736999,39.16299502,37334,25051,UPS Alliance Location,2045 Pleasant Valley Rd, , ,Winchester,VA,22601,Winchester City,540-667-2893,39.162995,-78.16737,OK, ,518400003024006,Staples Aso 00351,1
38369,-78.20306898,39.08077302,37370,26233,Authorized Shipping Outlet,352 Fairfax Pike, , ,Stephens City,VA,22655,Frederick,540-869-9002,39.080773,-78.203069,OK, ,510690508003000,"E-Z Mail,llc",1
38370,-78.17544098,39.154741,37371,26237,Authorized Shipping Outlet,2516 S Pleasant Valley Rd, , ,Winchester,VA,22601,Winchester City,540-722-9620,39.154741,-78.175441,OK, ,518400003024000,Pak Mail,1
38373,-78.19737198,38.93510499,37374,26259,Authorized Shipping Outlet,122 W 14th St, , ,Front Royal,VA,22630,Warren,540-635-7997,38.935105,-78.197372,OK, ,511870204001001,Postal Business Center,1
38378,-78.35718199,38.987967,37379,26267,Authorized Shipping Outlet,390 E King St, , ,Strasburg,VA,22657,Shenandoah,540-465-2247,38.987967,-78.357182,OK, ,511710401002031,Four Star Printing,1
38379,-78.51723202,38.86776999,37380,26268,Authorized Shipping Outlet,916 S Main St, , ,Woodstock,VA,22664,Shenandoah,540-459-2247,38.86777,-78.517232,OK, ,511710405003054,Four Star Printing,1
38391,-78.85449499,38.43253,37392,26636,UPS Alliance Location,265 Burgess Rd, , ,Harrisonburg,VA,22801,Harrisonburg City,540-432-1844,38.43253,-78.854495,OK, ,516600002014000,Staples Aso 00303,4
38392,-78.847197,38.43504799,37393,26637,UPS Alliance Location,1790 E Market St, , ,Harrisonburg,VA,22801,Harrisonburg City,540-432-6234,38.435048,-78.847197,OK, ,516600001005011,Office Depot/Copy Center,4
38393,-78.86974599,38.431144,37394,26638,Authorized Shipping Outlet,600 University Blvd,D, ,Harrisonburg,VA,22801,Harrisonburg City,540-433-2679,38.431144,-78.869746,OK, ,516600002021000,Kisamore Parcel Pack,4
38845,-78.84690099,38.43483702,37846,21374,The UPS Store,1866 E Market St,C, ,Harrisonburg,VA,22801,Harrisonburg City,540-433-6245,38.434837,-78.846901,OK, ,516600001005011, ,4
